GOES 1 [-]              
1 08366U 75100A   16074.17037909  .00000020  00000-0  00000+0 0  9991
2 08366  12.7185 323.9075 0004283 255.4039 245.1152  1.00276329147634
GOES 2 [-]              
1 10061U 77048A   16073.96566675  .00000058  00000-0  00000-0 0  9994
2 10061  13.8378 332.7114 0015450 303.2947 307.1308  0.99393607  9023
GOES 3 [P]              
1 10953U 78062A   16073.32259296 -.00000141  00000-0  00000+0 0  9992
2 10953  13.9290 336.1959 0002403 183.9108  24.4763  1.00278616 91343
GOES 4 [-]              
1 11964U 80074A   16073.20522297 -.00000202  00000-0  00000+0 0  9990
2 11964  14.6475 339.9500 0031656 359.9923 199.1474  0.99229401 90448
GOES 5 [-]              
1 12472U 81049A   16073.22033189  .00000061  00000-0  00000+0 0  9999
2 12472  14.6508 350.0519 0004375 222.3491 258.0481  1.00294516 85376
GOES 6 [-]              
1 14050U 83041A   16074.47422848  .00000037  00000-0  00000+0 0  9992
2 14050  14.7885 354.8682 0002714 179.3382  34.5602  1.00279588178486
GOES 7 [-]              
1 17561U 87022A   16073.94118132 -.00000074  00000-0  00000-0 0  9997
2 17561  15.0645  10.7383 0003584 284.7977 293.0416  0.99888987 89524
GOES 8 [-]              
1 23051U 94022A   16073.78653255 -.00000089  00000-0  00000-0 0  9994
2 23051  10.7754  43.4304 0007641 231.7283 278.1173  0.98903399 87069
GOES 9 [-]              
1 23581U 95025A   16075.26448315 -.00000283  00000-0  00000+0 0  9995
2 23581  10.2868  42.6044 0001958  62.6880 303.1945  0.98802272 75745
GOES 10 [-]             
1 24786U 97019A   16074.09919131  .00000000  00000-0  00000+0 0  9993
2 24786   8.6065  46.9174 0029126 149.1653  47.5201  0.99122774 68918
GOES 11 [-]             
1 26352U 00022A   16074.51564186 -.00000040  00000-0  00000+0 0  9990
2 26352   4.0226  78.9331 0002496 138.3875 344.8513  0.99043349 57888
GOES 12 [-]             
1 26871U 01031A   16074.09413019  .00000063  00000-0  00000+0 0  9992
2 26871   5.4966  63.6650 0009132 223.1099 336.5550  0.99134918 53585
GOES 13 [+]             
1 29155U 06018A   16073.73054915 -.00000278  00000-0  00000+0 0  9995
2 29155   0.3914 269.1834 0005550 137.8235 313.0157  1.00276300 35948
GOES 14 [S]             
1 35491U 09033A   16073.81331570 -.00000118  00000-0  00000+0 0  9992
2 35491   0.0605 114.8731 0003361 120.9043 124.1678  1.00272074 24583
GOES 15 [+]             
1 36411U 10008A   16073.89643585  .00000058  00000-0  00000+0 0  9991
2 36411   0.0230 195.2250 0001105  68.8941  95.8452  1.00283560 22113
